export const neos = {
	"links": {
		"next": "https://api.nasa.gov/neo/rest/v1/feed?start_date=2019-04-13&end_date=2019-04-13&detailed=true&api_key=DEMO_KEY",
		"prev": "https://api.nasa.gov/neo/rest/v1/feed?start_date=2019-04-11&end_date=2019-04-11&detailed=true&api_key=DEMO_KEY",
		"self": "https://api.nasa.gov/neo/rest/v1/feed?start_date=2019-04-12&end_date=2019-04-12&detailed=true&api_key=DEMO_KEY"
	},
	"element_count": 10,
	"near_earth_objects": {
		"2019-04-12": [{
			"links": {
				"self": "https://api.nasa.gov/neo/rest/v1/neo/3840755?api_key=DEMO_KEY"
			},
			"id": "3840755",
			"neo_reference_id": "3840755",
			"name": "(2019 FB3)",
			"nasa_jpl_url": "http://ssd.jpl.nasa.gov/sbdb.cgi?sstr=3840755",
			"absolute_magnitude_h": 24.612,
			"estimated_diameter": {
				"kilometers": {
					"estimated_diameter_min": 0.0317800793,
					"estimated_diameter_max": 0.0710624177
				},
				"meters": {
					"estimated_diameter_min": 31.7800793037,
					"estimated_diameter_max": 71.0624176534
				},
				"miles": {
					"estimated_diameter_min": 0.0197472197,
					"estimated_diameter_max": 0.0441561255
				},
				"feet": {
					"estimated_diameter_min": 104.2653553827,
					"estimated_diameter_max": 233.1444223339
				}
			},
			"is_potentially_hazardous_asteroid": false,
			"close_approach_data": [{
				"close_approach_date": "2019-04-12",
				"epoch_date_close_approach": 1555052400000,
				"relative_velocity": {
					"kilometers_per_second": "14.1633884704",
					"kilometers_per_hour": "50988.1984934368",
					"miles_per_hour": "31682.0836694357"
				},
				"miss_distance": {
					"astronomical": "0.0303630236",
					"lunar": "11.8112163544",
					"kilometers": "4542243.5",
					"miles": "2822419.25"
				},
				"orbiting_body": "Earth"
			}],
			"orbital_data": {
				"orbit_id": "2",
				"orbit_determination_date": "2019-04-05 07:30:30",
				"first_observation_date": "2019-03-31",
				"last_observation_date": "2019-04-04",
				"data_arc_in_days": 4,
				"observations_used": 41,
				"orbit_uncertainty": "8",
				"minimum_orbit_intersection": ".0154091",
				"jupiter_tisserand_invariant": "3.789",
				"epoch_osculation": "2458575.5",
				"eccentricity": ".543645572005374",
				"semi_major_axis": "1.864010068987678",
				"inclination": "6.681513799313628",
				"ascending_node_longitude": "196.9887404930546",
				"orbital_period": "929.5458319664044",
				"perihelion_distance": ".8506492488090951",
				"perihelion_argument": "63.34883328341316",
				"aphelion_distance": "2.877370889166261",
				"perihelion_time": "2458627.073834360082",
				"mean_anomaly": "340.0261808174075",
				"mean_motion": ".3872859063209818",
				"equinox": "J2000",
				"orbit_class": {
					"orbit_class_type": "APO",
					"orbit_class_description": "Near-Earth asteroid orbits which cross the Earth’s orbit similar to that of 1862 Apollo",
					"orbit_class_range": "a (semi-major axis) > 1.0 AU; q (perihelion) < 1.017 AU"
				}
			},
			"is_sentry_object": false
		}, {
			"links": {
				"self": "https://api.nasa.gov/neo/rest/v1/neo/3840861?api_key=DEMO_KEY"
			},
			"id": "3840861",
			"neo_reference_id": "3840861",
			"name": "(2019 GC4)",
			"nasa_jpl_url": "http://ssd.jpl.nasa.gov/sbdb.cgi?sstr=3840861",
			"absolute_magnitude_h": 24.922,
			"estimated_diameter": {
				"kilometers": {
					"estimated_diameter_min": 0.0275521172,
					"estimated_diameter_max": 0.0616084069
				},
				"meters": {
					"estimated_diameter_min": 27.5521171649,
					"estimated_diameter_max": 61.6084069047
				},
				"miles": {
					"estimated_diameter_min": 0.0171200866,
					"estimated_diameter_max": 0.0382816774
				},
				"feet": {
					"estimated_diameter_min": 90.3940880792,
					"estimated_diameter_max": 202.1273257092
				}
			},
			"is_potentially_hazardous_asteroid": false,
			"close_approach_data": [{
				"close_approach_date": "2019-04-12",
				"epoch_date_close_approach": 1555052400000,
				"relative_velocity": {
					"kilometers_per_second": "33.5352262375",
					"kilometers_per_hour": "120726.8144548726",
					"miles_per_hour": "75014.9475705846"
				},
				"miss_distance": {
					"astronomical": "0.0131316991",
					"lunar": "5.1082310677",
					"kilometers": "1964474.25",
					"miles": "1220667.75"
				},
				"orbiting_body": "Earth"
			}],
			"orbital_data": {
				"orbit_id": "1",
				"orbit_determination_date": "2019-04-08 17:42:04",
				"first_observation_date": "2019-04-04",
				"last_observation_date": "2019-04-07",
				"data_arc_in_days": 3,
				"observations_used": 19,
				"orbit_uncertainty": "9",
				"minimum_orbit_intersection": ".0101521",
				"jupiter_tisserand_invariant": "2.631",
				"epoch_osculation": "2458579.5",
				"eccentricity": ".9056587666112078",
				"semi_major_axis": "2.554565974550746",
				"inclination": "2.150868545576851",
				"ascending_node_longitude": "217.1226630768436",
				"orbital_period": "1491.331227625378",
				"perihelion_distance": ".2410009048121593",
				"perihelion_argument": "111.1109634795512",
				"aphelion_distance": "4.868131044289332",
				"perihelion_time": "2458624.824110333157",
				"mean_anomaly": "349.0589833983981",
				"mean_motion": ".2413950659192069",
				"equinox": "J2000",
				"orbit_class": {
					"orbit_class_type": "APO",
					"orbit_class_description": "Near-Earth asteroid orbits which cross the Earth’s orbit similar to that of 1862 Apollo",
					"orbit_class_range": "a (semi-major axis) > 1.0 AU; q (perihelion) < 1.017 AU"
				}
			},
			"is_sentry_object": false
		}, {
			"links": {
				"self": "https://api.nasa.gov/neo/rest/v1/neo/3838083?api_key=DEMO_KEY"
			},
			"id": "3838083",
			"neo_reference_id": "3838083",
			"name": "(2019 CE)",
			"nasa_jpl_url": "http://ssd.jpl.nasa.gov/sbdb.cgi?sstr=3838083",
			"absolute_magnitude_h": 20.924,
			"estimated_diameter": {
				"kilometers": {
					"estimated_diameter_min": 0.173682066,
					"estimated_diameter_max": 0.3883649061
				},
				"meters": {
					"estimated_diameter_min": 173.6820660269,
					"estimated_diameter_max": 388.3649061087
				},
				"miles": {
					"estimated_diameter_min": 0.107920999,
					"estimated_diameter_max": 0.2413186901
				},
				"feet": {
					"estimated_diameter_min": 569.8230695036,
					"estimated_diameter_max": 1274.1631185576
				}
			},
			"is_potentially_hazardous_asteroid": false,
			"close_approach_data": [{
				"close_approach_date": "2019-04-12",
				"epoch_date_close_approach": 1555052400000,
				"relative_velocity": {
					"kilometers_per_second": "7.8296891281",
					"kilometers_per_hour": "28186.8808612299",
					"miles_per_hour": "17514.2316106903"
				},
				"miss_distance": {
					"astronomical": "0.0995418757",
					"lunar": "38.7217903137",
					"kilometers": "14891252",
					"miles": "9252995"
				},
				"orbiting_body": "Earth"
			}],
			"orbital_data": {
				"orbit_id": "19",
				"orbit_determination_date": "2019-03-19 07:06:25",
				"first_observation_date": "2019-02-01",
				"last_observation_date": "2019-03-18",
				"data_arc_in_days": 45,
				"observations_used": 75,
				"orbit_uncertainty": "6",
				"minimum_orbit_intersection": ".0648512",
				"jupiter_tisserand_invariant": "3.628",
				"epoch_osculation": "2458600.5",
				"eccentricity": ".5227141634180089",
				"semi_major_axis": "2.025358244346005",
				"inclination": "5.657266609700294",
				"ascending_node_longitude": "116.58105107",
				"orbital_period": "1052.812917955519",
				"perihelion_distance": ".9666748040309158",
				"perihelion_argument": "67.50163119987086",
				"aphelion_distance": "3.084041684661095",
				"perihelion_time": "2458571.623735033729",
				"mean_anomaly": "9.87398160733493",
				"mean_motion": ".3419410931042638",
				"equinox": "J2000",
				"orbit_class": {
					"orbit_class_type": "APO",
					"orbit_class_description": "Near-Earth asteroid orbits which cross the Earth’s orbit similar to that of 1862 Apollo",
					"orbit_class_range": "a (semi-major axis) > 1.0 AU; q (perihelion) < 1.017 AU"
				}
			},
			"is_sentry_object": false
		}, {
			"links": {
				"self": "https://api.nasa.gov/neo/rest/v1/neo/3439813?api_key=DEMO_KEY"
			},
			"id": "3439813",
			"neo_reference_id": "3439813",
			"name": "(2008 WK32)",
			"nasa_jpl_url": "http://ssd.jpl.nasa.gov/sbdb.cgi?sstr=3439813",
			"absolute_magnitude_h": 19.2,
			"estimated_diameter": {
				"kilometers": {
					"estimated_diameter_min": 0.3841978911,
					"estimated_diameter_max": 0.8590926012
				},
				"meters": {
					"estimated_diameter_min": 384.1978910643,
					"estimated_diameter_max": 859.0926012318
				},
				"miles": {
					"estimated_diameter_min": 0.2387294278,
					"estimated_diameter_max": 0.5338152287
				},
				"feet": {
					"estimated_diameter_min": 1260.4918089193,
					"estimated_diameter_max": 2818.5453698252
				}
			},
			"is_potentially_hazardous_asteroid": false,
			"close_approach_data": [{
				"close_approach_date": "2019-04-12",
				"epoch_date_close_approach": 1555052400000,
				"relative_velocity": {
					"kilometers_per_second": "10.9277211904",
					"kilometers_per_hour": "39339.7962855073",
					"miles_per_hour": "24444.2195308476"
				},
				"miss_distance": {
					"astronomical": "0.2148115219",
					"lunar": "83.5616836548",
					"kilometers": "32135346",
					"miles": "19967978"
				},
				"orbiting_body": "Earth"
			}],
			"orbital_data": {
				"orbit_id": "47",
				"orbit_determination_date": "2016-09-29 06:46:17",
				"first_observation_date": null,
				"last_observation_date": null,
				"data_arc_in_days": null,
				"observations_used": null,
				"orbit_uncertainty": "0",
				"minimum_orbit_intersection": ".068965",
				"jupiter_tisserand_invariant": "4.651",
				"epoch_osculation": "2457600.5",
				"eccentricity": ".378963254200687",
				"semi_major_axis": "1.396324485890176",
				"inclination": "15.45109082614028",
				"ascending_node_longitude": "58.80709475446888",
				"orbital_period": "602.6677577209846",
				"perihelion_distance": ".8671688147971337",
				"perihelion_argument": "139.8445496862943",
				"aphelion_distance": "1.925480156983219",
				"perihelion_time": "2457374.160242054060",
				"mean_anomaly": "135.2027079873452",
				"mean_motion": ".5973440513249892",
				"equinox": "J2000",
				"orbit_class": null
			},
			"is_sentry_object": false
		}, {
			"links": {
				"self": "https://api.nasa.gov/neo/rest/v1/neo/3599111?api_key=DEMO_KEY"
			},
			"id": "3599111",
			"neo_reference_id": "3599111",
			"name": "(2012 CL29)",
			"nasa_jpl_url": "http://ssd.jpl.nasa.gov/sbdb.cgi?sstr=3599111",
			"absolute_magnitude_h": 23.1,
			"estimated_diameter": {
				"kilometers": {
					"estimated_diameter_min": 0.063760979,
					"estimated_diameter_max": 0.1425738833
				},
				"meters": {
					"estimated_diameter_min": 63.7609789875,
					"estimated_diameter_max": 142.5738833281
				},
				"miles": {
					"estimated_diameter_min": 0.0396192233,
					"estimated_diameter_max": 0.0885912765
				},
				"feet": {
					"estimated_diameter_min": 209.1895703015,
					"estimated_diameter_max": 467.7620993781
				}
			},
			"is_potentially_hazardous_asteroid": false,
			"close_approach_data": [{
				"close_approach_date": "2019-04-12",
				"epoch_date_close_approach": 1555052400000,
				"relative_velocity": {
					"kilometers_per_second": "3.4498433604",
					"kilometers_per_hour": "12419.4360975237",
					"miles_per_hour": "7716.9546129308"
				},
				"miss_distance": {
					"astronomical": "0.4901438019",
					"lunar": "190.6659393311",
					"kilometers": "73324472",
					"miles": "45561712"
				},
				"orbiting_body": "Earth"
			}],
			"orbital_data": {
				"orbit_id": "17",
				"orbit_determination_date": "2017-04-06 08:51:00",
				"first_observation_date": "2012-02-13",
				"last_observation_date": "2012-04-17",
				"data_arc_in_days": 64,
				"observations_used": 53,
				"orbit_uncertainty": "5",
				"minimum_orbit_intersection": ".160879",
				"jupiter_tisserand_invariant": "4.056",
				"epoch_osculation": "2458600.5",
				"eccentricity": ".343085961673067",
				"semi_major_axis": "1.747004012426475",
				"inclination": "8.076948703590062",
				"ascending_node_longitude": "334.4551032607698",
				"orbital_period": "843.4110381378085",
				"perihelion_distance": "1.147631460776431",
				"perihelion_argument": "170.8835138474755",
				"aphelion_distance": "2.346376564076519",
				"perihelion_time": "2458499.571895167637",
				"mean_anomaly": "43.07996468705681",
				"mean_motion": ".4268381414533706",
				"equinox": "J2000",
				"orbit_class": {
					"orbit_class_type": "AMO",
					"orbit_class_description": "Near-Earth asteroid orbits similar to that of 1221 Amor",
					"orbit_class_range": "1.017 AU < q (perihelion) < 1.3 AU"
				}
			},
			"is_sentry_object": false
		}, {
			"links": {
				"self": "https://api.nasa.gov/neo/rest/v1/neo/2476904?api_key=DEMO_KEY"
			},
			"id": "2476904",
			"neo_reference_id": "2476904",
			"name": "476904 (2008 WK32)",
			"nasa_jpl_url": "http://ssd.jpl.nasa.gov/sbdb.cgi?sstr=2476904",
			"absolute_magnitude_h": 19.2,
			"estimated_diameter": {
				"kilometers": {
					"estimated_diameter_min": 0.3841978911,
					"estimated_diameter_max": 0.8590926012
				},
				"meters": {
					"estimated_diameter_min": 384.1978910643,
					"estimated_diameter_max": 859.0926012318
				},
				"miles": {
					"estimated_diameter_min": 0.2387294278,
					"estimated_diameter_max": 0.5338152287
				},
				"feet": {
					"estimated_diameter_min": 1260.4918089193,
					"estimated_diameter_max": 2818.5453698252
				}
			},
			"is_potentially_hazardous_asteroid": false,
			"close_approach_data": [{
				"close_approach_date": "2019-04-12",
				"epoch_date_close_approach": 1555052400000,
				"relative_velocity": {
					"kilometers_per_second": "10.9277239669",
					"kilometers_per_hour": "39339.8062807637",
					"miles_per_hour": "24444.2257415112"
				},
				"miss_distance": {
					"astronomical": "0.2148116658",
					"lunar": "83.5617370605",
					"kilometers": "32135368",
					"miles": "19967992"
				},
				"orbiting_body": "Earth"
			}],
			"orbital_data": {
				"orbit_id": "55",
				"orbit_determination_date": "2019-01-22 08:40:33",
				"first_observation_date": "2008-11-21",
				"last_observation_date": "2019-01-08",
				"data_arc_in_days": 3700,
				"observations_used": 152,
				"orbit_uncertainty": "0",
				"minimum_orbit_intersection": ".0690348",
				"jupiter_tisserand_invariant": "4.651",
				"epoch_osculation": "2458600.5",
				"eccentricity": ".3789262675558518",
				"semi_major_axis": "1.396312221366383",
				"inclination": "15.45272806563647",
				"ascending_node_longitude": "58.79446298708678",
				"orbital_period": "602.6598174998198",
				"perihelion_distance": ".8672128429813989",
				"perihelion_argument": "139.8741279872288",
				"aphelion_distance": "1.925411599751366",
				"perihelion_time": "2458579.481404260105",
				"mean_anomaly": "12.55549855265469",
				"mean_motion": ".597351921509364",
				"equinox": "J2000",
				"orbit_class": {
					"orbit_class_type": "APO",
					"orbit_class_description": "Near-Earth asteroid orbits which cross the Earth’s orbit similar to that of 1862 Apollo",
					"orbit_class_range": "a (semi-major axis) > 1.0 AU; q (perihelion) < 1.017 AU"
				}
			},
			"is_sentry_object": false
		}, {
			"links": {
				"self": "https://api.nasa.gov/neo/rest/v1/neo/3840865?api_key=DEMO_KEY"
			},
			"id": "3840865",
			"neo_reference_id": "3840865",
			"name": "(2019 GL4)",
			"nasa_jpl_url": "http://ssd.jpl.nasa.gov/sbdb.cgi?sstr=3840865",
			"absolute_magnitude_h": 23.122,
			"estimated_diameter": {
				"kilometers": {
					"estimated_diameter_min": 0.063118254,
					"estimated_diameter_max": 0.1411367065
				},
				"meters": {
					"estimated_diameter_min": 63.1182539783,
					"estimated_diameter_max": 141.1367065165
				},
				"miles": {
					"estimated_diameter_min": 0.0392198526,
					"estimated_diameter_max": 0.0876982565
				},
				"feet": {
					"estimated_diameter_min": 207.080892382,
					"estimated_diameter_max": 463.0469522076
				}
			},
			"is_potentially_hazardous_asteroid": false,
			"close_approach_data": [{
				"close_approach_date": "2019-04-12",
				"epoch_date_close_approach": 1555052400000,
				"relative_velocity": {
					"kilometers_per_second": "13.1862377294",
					"kilometers_per_hour": "47470.4558256787",
					"miles_per_hour": "29496.2951767947"
				},
				"miss_distance": {
					"astronomical": "0.0369910387",
					"lunar": "14.3895139694",
					"kilometers": "5533780.5",
					"miles": "3438531.75"
				},
				"orbiting_body": "Earth"
			}],
			"orbital_data": {
				"orbit_id": "1",
				"orbit_determination_date": "2019-04-08 18:12:06",
				"first_observation_date": "2019-04-07",
				"last_observation_date": "2019-04-08",
				"data_arc_in_days": 1,
				"observations_used": 55,
				"orbit_uncertainty": "8",
				"minimum_orbit_intersection": ".0368459",
				"jupiter_tisserand_invariant": "4.527",
				"epoch_osculation": "2458581.5",
				"eccentricity": ".2986270399594187",
				"semi_major_axis": "1.445053511300114",
				"inclination": "22.91541435127098",
				"ascending_node_longitude": "22.95041406317817",
				"orbital_period": "634.4893273344676",
				"perihelion_distance": "1.013521458637597",
				"perihelion_argument": "152.5107687476415",
				"aphelion_distance": "1.876585563962632",
				"perihelion_time": "2458561.747177372894",
				"mean_anomaly": "11.20746376559558",
				"mean_motion": ".5673854302835704",
				"equinox": "J2000",
				"orbit_class": {
					"orbit_class_type": "APO",
					"orbit_class_description": "Near-Earth asteroid orbits which cross the Earth’s orbit similar to that of 1862 Apollo",
					"orbit_class_range": "a (semi-major axis) > 1.0 AU; q (perihelion) < 1.017 AU"
				}
			},
			"is_sentry_object": false
		}, {
			"links": {
				"self": "https://api.nasa.gov/neo/rest/v1/neo/3840795?api_key=DEMO_KEY"
			},
			"id": "3840795",
			"neo_reference_id": "3840795",
			"name": "(2019 GQ1)",
			"nasa_jpl_url": "http://ssd.jpl.nasa.gov/sbdb.cgi?sstr=3840795",
			"absolute_magnitude_h": 24.764,
			"estimated_diameter": {
				"kilometers": {
					"estimated_diameter_min": 0.0296315914,
					"estimated_diameter_max": 0.0662582527
				},
				"meters": {
					"estimated_diameter_min": 29.6315914134,
					"estimated_diameter_max": 66.2582526819
				},
				"miles": {
					"estimated_diameter_min": 0.0184122116,
					"estimated_diameter_max": 0.0411709567
				},
				"feet": {
					"estimated_diameter_min": 97.2165103728,
					"estimated_diameter_max": 217.3827257288
				}
			},
			"is_potentially_hazardous_asteroid": false,
			"close_approach_data": [{
				"close_approach_date": "2019-04-12",
				"epoch_date_close_approach": 1555052400000,
				"relative_velocity": {
					"kilometers_per_second": "12.6711807147",
					"kilometers_per_hour": "45616.2505728142",
					"miles_per_hour": "28344.1641406467"
				},
				"miss_distance": {
					"astronomical": "0.0344269234",
					"lunar": "13.3920736313",
					"kilometers": "5150194.5",
					"miles": "3200182.5"
				},
				"orbiting_body": "Earth"
			}],
			"orbital_data": {
				"orbit_id": "2",
				"orbit_determination_date": "2019-04-08 06:28:18",
				"first_observation_date": "2019-04-03",
				"last_observation_date": "2019-04-08",
				"data_arc_in_days": 5,
				"observations_used": 21,
				"orbit_uncertainty": "8",
				"minimum_orbit_intersection": ".0238267",
				"jupiter_tisserand_invariant": "5.230",
				"epoch_osculation": "2458578.5",
				"eccentricity": ".2038696282688394",
				"semi_major_axis": "1.194836785374943",
				"inclination": "21.145294377927",
				"ascending_node_longitude": "21.63932047730293",
				"orbital_period": "477.0471482091471",
				"perihelion_distance": ".9512458540986185",
				"perihelion_argument": "236.2063380420305",
				"aphelion_distance": "1.438427716651268",
				"perihelion_time": "2458634.999320483734",
				"mean_anomaly": "317.363217764742",
				"mean_motion": ".7546423898590601",
				"equinox": "J2000",
				"orbit_class": {
					"orbit_class_type": "APO",
					"orbit_class_description": "Near-Earth asteroid orbits which cross the Earth’s orbit similar to that of 1862 Apollo",
					"orbit_class_range": "a (semi-major axis) > 1.0 AU; q (perihelion) < 1.017 AU"
				}
			},
			"is_sentry_object": false
		}, {
			"links": {
				"self": "https://api.nasa.gov/neo/rest/v1/neo/2022771?api_key=DEMO_KEY"
			},
			"id": "2022771",
			"neo_reference_id": "2022771",
			"name": "22771 (1999 CU3)",
			"nasa_jpl_url": "http://ssd.jpl.nasa.gov/sbdb.cgi?sstr=2022771",
			"absolute_magnitude_h": 16.8,
			"estimated_diameter": {
				"kilometers": {
					"estimated_diameter_min": 1.1602590821,
					"estimated_diameter_max": 2.5944181791
				},
				"meters": {
					"estimated_diameter_min": 1160.2590820944,
					"estimated_diameter_max": 2594.4181790745
				},
				"miles": {
					"estimated_diameter_min": 0.7209513461,
					"estimated_diameter_max": 1.6120962183
				},
				"feet": {
					"estimated_diameter_min": 3806.6244068985,
					"estimated_diameter_max": 8511.8709386348
				}
			},
			"is_potentially_hazardous_asteroid": false,
			"close_approach_data": [{
				"close_approach_date": "2019-04-12",
				"epoch_date_close_approach": 1555052400000,
				"relative_velocity": {
					"kilometers_per_second": "17.3125052073",
					"kilometers_per_hour": "62325.0187463718",
					"miles_per_hour": "38726.3428982664"
				},
				"miss_distance": {
					"astronomical": "0.1655925917",
					"lunar": "64.4155197144",
					"kilometers": "24772300",
					"miles": "15392794"
				},
				"orbiting_body": "Earth"
			}],
			"orbital_data": {
				"orbit_id": "410",
				"orbit_determination_date": "2019-03-25 07:19:14",
				"first_observation_date": "1999-02-10",
				"last_observation_date": "2019-03-17",
				"data_arc_in_days": 7340,
				"observations_used": 2291,
				"orbit_uncertainty": "0",
				"minimum_orbit_intersection": ".0631932",
				"jupiter_tisserand_invariant": "4.220",
				"epoch_osculation": "2458600.5",
				"eccentricity": ".5242425506449503",
				"semi_major_axis": "1.576515052767275",
				"inclination": "11.40089325623476",
				"ascending_node_longitude": "338.9699173725379",
				"orbital_period": "723.0121733593832",
				"perihelion_distance": ".7500387803744004",
				"perihelion_argument": "305.7568557847171",
				"aphelion_distance": "2.40299132516015",
				"perihelion_time": "2458638.851457526525",
				"mean_anomaly": "340.9041600981645",
				"mean_motion": ".4979169276324993",
				"equinox": "J2000",
				"orbit_class": {
					"orbit_class_type": "APO",
					"orbit_class_description": "Near-Earth asteroid orbits which cross the Earth’s orbit similar to that of 1862 Apollo",
					"orbit_class_range": "a (semi-major axis) > 1.0 AU; q (perihelion) < 1.017 AU"
				}
			},
			"is_sentry_object": false
		}, {
			"links": {
				"self": "https://api.nasa.gov/neo/rest/v1/neo/3840847?api_key=DEMO_KEY"
			},
			"id": "3840847",
			"neo_reference_id": "3840847",
			"name": "(2019 GO3)",
			"nasa_jpl_url": "http://ssd.jpl.nasa.gov/sbdb.cgi?sstr=3840847",
			"absolute_magnitude_h": 22.645,
			"estimated_diameter": {
				"kilometers": {
					"estimated_diameter_min": 0.0786239714,
					"estimated_diameter_max": 0.1758085446
				},
				"meters": {
					"estimated_diameter_min": 78.6239713609,
					"estimated_diameter_max": 175.8085446241
				},
				"miles": {
					"estimated_diameter_min": 0.0488546557,
					"estimated_diameter_max": 0.1092423312
				},
				"feet": {
					"estimated_diameter_min": 257.9526701998,
					"estimated_diameter_max": 576.7997055444
				}
			},
			"is_potentially_hazardous_asteroid": false,
			"close_approach_data": [{
				"close_approach_date": "2019-04-12",
				"epoch_date_close_approach": 1555052400000,
				"relative_velocity": {
					"kilometers_per_second": "8.5170435306",
					"kilometers_per_hour": "30661.3567099896",
					"miles_per_hour": "19051.7746734933"
				},
				"miss_distance": {
					"astronomical": "0.2873991622",
					"lunar": "111.7982788086",
					"kilometers": "42994304",
					"miles": "26715422"
				},
				"orbiting_body": "Earth"
			}],
			"orbital_data": {
				"orbit_id": "1",
				"orbit_determination_date": "2019-04-08 16:12:04",
				"first_observation_date": "2019-04-02",
				"last_observation_date": "2019-04-08",
				"data_arc_in_days": 6,
				"observations_used": 22,
				"orbit_uncertainty": "7",
				"minimum_orbit_intersection": ".176787",
				"jupiter_tisserand_invariant": "5.905",
				"epoch_osculation": "2458600.5",
				"eccentricity": ".2531076925564078",
				"semi_major_axis": "1.028430996740369",
				"inclination": "10.64511346945995",
				"ascending_node_longitude": "26.54909748718051",
				"orbital_period": "380.9440226250392",
				"perihelion_distance": ".7681272002019278",
				"perihelion_argument": "354.2201221307715",
				"aphelion_distance": "1.28873479327881",
				"perihelion_time": "2458775.716887803824",
				"mean_anomaly": "194.4164080204926",
				"mean_motion": ".9450207343306861",
				"equinox": "J2000",
				"orbit_class": {
					"orbit_class_type": "APO",
					"orbit_class_description": "Near-Earth asteroid orbits which cross the Earth’s orbit similar to that of 1862 Apollo",
					"orbit_class_range": "a (semi-major axis) > 1.0 AU; q (perihelion) < 1.017 AU"
				}
			},
			"is_sentry_object": false
		}]
	}
}